[{"OBJECT_NAME":"SL-8 R/B","OBJECT_ID":"1979-089B","EPOCH":"2026-03-26T06:04:18.544224","MEAN_MOTION":14.42359977,"ECCENTRICITY":0.00168399,"INCLINATION":74.0681,"RA_OF_ASC_NODE":60.3796,"ARG_OF_PERICENTER":231.0223,"MEAN_ANOMALY":128.9435,"EPHEMERIS_TYPE":0,"CLASSIFICATION_TYPE":"U","NORAD_CAT_ID":11574,"ELEMENT_SET_NO":999,"REV_AT_EPOCH":43849,"BSTAR":8.6166781e-5,"MEAN_MOTION_DOT":2.59e-6,"MEAN_MOTION_DDOT":0},{"OBJECT_NAME":"SL-14 R/B","OBJECT_ID":"1980-005B","EPOCH":"2026-03-26T00:52:13.762560","MEAN_MOTION":14.9094788,"ECCENTRICITY":0.00172004,"INCLINATION":82.5115,"RA_OF_ASC_NODE":291.7272,"ARG_OF_PERICENTER":107.3287,"MEAN_ANOMALY":252.9815,"EPHEMERIS_TYPE":0,"CLASSIFICATION_TYPE":"U","NORAD_CAT_ID":11672,"ELEMENT_SET_NO":999,"REV_AT_EPOCH":47892,"BSTAR":5.0984077e-5,"MEAN_MOTION_DOT":5.3e-6,"MEAN_MOTION_DDOT":0},{"OBJECT_NAME":"SL-8 R/B","OBJECT_ID":"1981-003B","EPOCH":"2026-03-26T00:34:25.189824","MEAN_MOTION":15.11671572,"ECCENTRICITY":0.02611653,"INCLINATION":82.935,"RA_OF_ASC_NODE":274.9115,"ARG_OF_PERICENTER":121.7689,"MEAN_ANOMALY":240.9276,"EPHEMERIS_TYPE":0,"CLASSIFICATION_TYPE":"U","NORAD_CAT_ID":12139,"ELEMENT_SET_NO":999,"REV_AT_EPOCH":31714,"BSTAR":0.00051350999,"MEAN_MOTION_DOT":0.00020439,"MEAN_MOTION_DDOT":0},{"OBJECT_NAME":"SL-3 R/B","OBJECT_ID":"1981-046B","EPOCH":"2026-03-26T06:21:14.299776","MEAN_MOTION":15.42390203,"ECCENTRICITY":0.00183472,"INCLINATION":81.2288,"RA_OF_ASC_NODE":269.8308,"ARG_OF_PERICENTER":323.8005,"MEAN_ANOMALY":36.1995,"EPHEMERIS_TYPE":0,"CLASSIFICATION_TYPE":"U","NORAD_CAT_ID":12465,"ELEMENT_SET_NO":999,"REV_AT_EPOCH":44098,"BSTAR":0.00025578157,"MEAN_MOTION_DOT":0.00011143,"MEAN_MOTION_DDOT":0},{"OBJECT_NAME":"SL-3 R/B","OBJECT_ID":"1981-103B","EPOCH":"2026-03-26T06:42:36.466272","MEAN_MOTION":15.21568899,"ECCENTRICITY":0.00126837,"INCLINATION":81.1605,"RA_OF_ASC_NODE":193.9716,"ARG_OF_PERICENTER":227.2307,"MEAN_ANOMALY":132.7858,"EPHEMERIS_TYPE":0,"CLASSIFICATION_TYPE":"U","NORAD_CAT_ID":12904,"ELEMENT_SET_NO":999,"REV_AT_EPOCH":97575,"BSTAR":0.00020704771,"MEAN_MOTION_DOT":4.701e-5,"MEAN_MOTION_DDOT":0},{"OBJECT_NAME":"SL-3 R/B","OBJECT_ID":"1982-013B","EPOCH":"2026-03-26T06:44:35.165184","MEAN_MOTION":15.22164229,"ECCENTRICITY":0.002343,"INCLINATION":81.1743,"RA_OF_ASC_NODE":141.3243,"ARG_OF_PERICENTER":122.9026,"MEAN_ANOMALY":237.4465,"EPHEMERIS_TYPE":0,"CLASSIFICATION_TYPE":"U","NORAD_CAT_ID":13068,"ELEMENT_SET_NO":999,"REV_AT_EPOCH":40687,"BSTAR":0.00015476657,"MEAN_MOTION_DOT":3.603e-5,"MEAN_MOTION_DDOT":0},{"OBJECT_NAME":"SL-3 R/B","OBJECT_ID":"1982-039B","EPOCH":"2026-03-26T06:54:45.874944","MEAN_MOTION":15.10170933,"ECCENTRICITY":0.00287964,"INCLINATION":81.157,"RA_OF_ASC_NODE":196.8237,"ARG_OF_PERICENTER":269.711,"MEAN_ANOMALY":90.0815,"EPHEMERIS_TYPE":0,"CLASSIFICATION_TYPE":"U","NORAD_CAT_ID":13154,"ELEMENT_SET_NO":999,"REV_AT_EPOCH":38414,"BSTAR":0.0001466505,"MEAN_MOTION_DOT":2.439e-5,"MEAN_MOTION_DDOT":0},{"OBJECT_NAME":"SL-3 R/B","OBJECT_ID":"1982-079B","EPOCH":"2026-03-26T06:26:15.590400","MEAN_MOTION":15.25018825,"ECCENTRICITY":0.0025549,"INCLINATION":81.1482,"RA_OF_ASC_NODE":173.5029,"ARG_OF_PERICENTER":110.1911,"MEAN_ANOMALY":250.2074,"EPHEMERIS_TYPE":0,"CLASSIFICATION_TYPE":"U","NORAD_CAT_ID":13403,"ELEMENT_SET_NO":999,"REV_AT_EPOCH":38022,"BSTAR":0.00021536285,"MEAN_MOTION_DOT":5.452e-5,"MEAN_MOTION_DDOT":0},{"OBJECT_NAME":"SL-14 R/B","OBJECT_ID":"1982-092B","EPOCH":"2026-03-26T03:10:20.833248","MEAN_MOTION":14.86680782,"ECCENTRICITY":0.0018903,"INCLINATION":82.5663,"RA_OF_ASC_NODE":126.0183,"ARG_OF_PERICENTER":244.6927,"MEAN_ANOMALY":169.4261,"EPHEMERIS_TYPE":0,"CLASSIFICATION_TYPE":"U","NORAD_CAT_ID":13553,"ELEMENT_SET_NO":999,"REV_AT_EPOCH":33137,"BSTAR":4.5045654e-5,"MEAN_MOTION_DOT":4.26e-6,"MEAN_MOTION_DDOT":0},{"OBJECT_NAME":"SL-3 R/B","OBJECT_ID":"1983-010B","EPOCH":"2026-03-26T03:06:06.608160","MEAN_MOTION":15.46905025,"ECCENTRICITY":0.00162906,"INCLINATION":81.1051,"RA_OF_ASC_NODE":342.0861,"ARG_OF_PERICENTER":355.6276,"MEAN_ANOMALY":4.4823,"EPHEMERIS_TYPE":0,"CLASSIFICATION_TYPE":"U","NORAD_CAT_ID":13819,"ELEMENT_SET_NO":999,"REV_AT_EPOCH":36048,"BSTAR":0.00029510041,"MEAN_MOTION_DOT":0.00014961,"MEAN_MOTION_DDOT":0},{"OBJECT_NAME":"SL-3 R/B","OBJECT_ID":"1983-075B","EPOCH":"2026-03-26T06:30:34.406784","MEAN_MOTION":15.38797908,"ECCENTRICITY":0.00219548,"INCLINATION":97.6146,"RA_OF_ASC_NODE":90.4816,"ARG_OF_PERICENTER":165.2633,"MEAN_ANOMALY":194.9257,"EPHEMERIS_TYPE":0,"CLASSIFICATION_TYPE":"U","NORAD_CAT_ID":14208,"ELEMENT_SET_NO":999,"REV_AT_EPOCH":33270,"BSTAR":0.00027000389,"MEAN_MOTION_DOT":0.00010356,"MEAN_MOTION_DDOT":0},{"OBJECT_NAME":"COSMOS 1536","OBJECT_ID":"1984-013A","EPOCH":"2026-03-26T01:40:21.611712","MEAN_MOTION":15.24039935,"ECCENTRICITY":0.00130802,"INCLINATION":82.5421,"RA_OF_ASC_NODE":91.5611,"ARG_OF_PERICENTER":218.6006,"MEAN_ANOMALY":141.4297,"EPHEMERIS_TYPE":0,"CLASSIFICATION_TYPE":"U","NORAD_CAT_ID":14699,"ELEMENT_SET_NO":999,"REV_AT_EPOCH":27511,"BSTAR":0.00023534565,"MEAN_MOTION_DOT":5.751e-5,"MEAN_MOTION_DDOT":0},{"OBJECT_NAME":"SL-14 R/B","OBJECT_ID":"1984-027B","EPOCH":"2026-03-26T07:48:33.891264","MEAN_MOTION":14.85993197,"ECCENTRICITY":0.00164816,"INCLINATION":82.541,"RA_OF_ASC_NODE":229.4084,"ARG_OF_PERICENTER":279.167,"MEAN_ANOMALY":80.7682,"EPHEMERIS_TYPE":0,"CLASSIFICATION_TYPE":"U","NORAD_CAT_ID":14820,"ELEMENT_SET_NO":999,"REV_AT_EPOCH":25010,"BSTAR":5.9041836e-5,"MEAN_MOTION_DOT":5.41e-6,"MEAN_MOTION_DDOT":0},{"OBJECT_NAME":"SL-8 R/B","OBJECT_ID":"1985-006B","EPOCH":"2026-03-25T10:50:01.740192","MEAN_MOTION":14.3779435,"ECCENTRICITY":0.00178109,"INCLINATION":74.0444,"RA_OF_ASC_NODE":232.1428,"ARG_OF_PERICENTER":145.5024,"MEAN_ANOMALY":270.1591,"EPHEMERIS_TYPE":0,"CLASSIFICATION_TYPE":"U","NORAD_CAT_ID":15483,"ELEMENT_SET_NO":999,"REV_AT_EPOCH":15629,"BSTAR":0.00011624805,"MEAN_MOTION_DOT":3.25e-6,"MEAN_MOTION_DDOT":0},{"OBJECT_NAME":"SL-12 R/B(2)","OBJECT_ID":"1985-042D","EPOCH":"2026-03-26T07:18:00.962784","MEAN_MOTION":14.2198699,"ECCENTRICITY":0.00328524,"INCLINATION":71.108,"RA_OF_ASC_NODE":52.624,"ARG_OF_PERICENTER":100.5971,"MEAN_ANOMALY":3.6806,"EPHEMERIS_TYPE":0,"CLASSIFICATION_TYPE":"U","NORAD_CAT_ID":15772,"ELEMENT_SET_NO":999,"REV_AT_EPOCH":11675,"BSTAR":7.6107212e-5,"MEAN_MOTION_DOT":1.22e-6,"MEAN_MOTION_DDOT":0},{"OBJECT_NAME":"SL-14 R/B","OBJECT_ID":"1985-069B","EPOCH":"2026-03-26T07:19:21.977472","MEAN_MOTION":14.86450671,"ECCENTRICITY":0.00198751,"INCLINATION":82.5304,"RA_OF_ASC_NODE":9.3132,"ARG_OF_PERICENTER":133.9594,"MEAN_ANOMALY":226.3267,"EPHEMERIS_TYPE":0,"CLASSIFICATION_TYPE":"U","NORAD_CAT_ID":15945,"ELEMENT_SET_NO":999,"REV_AT_EPOCH":17530,"BSTAR":5.3681683e-5,"MEAN_MOTION_DOT":5.0e-6,"MEAN_MOTION_DDOT":0},{"OBJECT_NAME":"SL-16 R/B","OBJECT_ID":"1985-097B","EPOCH":"2026-03-26T07:17:06.488448","MEAN_MOTION":14.16603371,"ECCENTRICITY":0.0009505,"INCLINATION":71.0009,"RA_OF_ASC_NODE":105.576,"ARG_OF_PERICENTER":240.3328,"MEAN_ANOMALY":208.3879,"EPHEMERIS_TYPE":0,"CLASSIFICATION_TYPE":"U","NORAD_CAT_ID":16182,"ELEMENT_SET_NO":999,"REV_AT_EPOCH":8958,"BSTAR":5.0109317e-5,"MEAN_MOTION_DOT":5.2e-7,"MEAN_MOTION_DDOT":0}]
